KUIPER-00071            
1 64818U 25151C   25215.16420782 -.00149053  00000+0 -43640-2 0  9998
2 64818  51.8786 201.3174 0004814 205.2148 154.8604 15.35231304  2738
KUIPER-00072            
1 64819U 25151D   25214.84250558  .00014835  00000+0  43545-3 0  9997
2 64819  51.8769 202.9041 0004902 212.5299 147.5385 15.35358692  2696
KUIPER-00073            
1 64820U 25151E   25215.16670948  .00022818  00000+0  66018-3 0  9994
2 64820  51.8787 201.3352 0005065 208.9008 151.1698 15.35500155  3922
KUIPER-00074            
1 64821U 25151F   25215.16598814  .00026744  00000+0  76934-3 0  9996
2 64821  51.8775 201.3233 0005185 210.4736 149.5949 15.35587362  2741
KUIPER-00075            
1 64822U 25151G   25215.16512769  .00021500  00000+0  62032-3 0  9991
2 64822  51.8785 201.3250 0004911 201.8933 158.1844 15.35625579  2744
KUIPER-00076            
1 64823U 25151H   25215.16712436  .00023348  00000+0  67614-3 0  9998
2 64823  51.8774 201.3305 0004886 210.8522 149.2178 15.35457694  2741
KUIPER-00077            
1 64824U 25151J   25214.84370764  .00016107  00000+0  47292-3 0  9992
2 64824  51.8785 202.9193 0005561 215.9883 144.0729 15.35278859  2685
KUIPER-00078            
1 64825U 25151K   25215.16878872  .00023731  00000+0  68969-3 0  9997
2 64825  51.8778 201.3443 0005677 219.8585 140.1985 15.35332281  2747
