<?xml version="1.0" encoding="UTF-8"?>
<ndm xmlns:xsi="http://www.w3.org/2001/XMLSchema-instance" xsi:noNamespaceSchemaLocation="https://sanaregistry.org/r/ndmxml_unqualified/ndmxml-2.0.0-master-2.0.xsd">
<omm id="CCSDS_OMM_VERS" version="2.0">
<header><CREATION_DATE/><ORIGINATOR/></header><body><segment><metadata><OBJECT_NAME>KUIPER-00071</OBJECT_NAME><OBJECT_ID>2025-151C</OBJECT_ID><CENTER_NAME>EARTH</CENTER_NAME><REF_FRAME>TEME</REF_FRAME><TIME_SYSTEM>UTC</TIME_SYSTEM><MEAN_ELEMENT_THEORY>SGP4</MEAN_ELEMENT_THEORY></metadata><data><meanElements><EPOCH>2025-08-03T03:56:27.555648</EPOCH><MEAN_MOTION>15.35231304</MEAN_MOTION><ECCENTRICITY>.0004814</ECCENTRICITY><INCLINATION>51.8786</INCLINATION><RA_OF_ASC_NODE>201.3174</RA_OF_ASC_NODE><ARG_OF_PERICENTER>205.2148</ARG_OF_PERICENTER><MEAN_ANOMALY>154.8604</MEAN_ANOMALY></meanElements><tleParameters><EPHEMERIS_TYPE>0</EPHEMERIS_TYPE><CLASSIFICATION_TYPE>U</CLASSIFICATION_TYPE><NORAD_CAT_ID>64818</NORAD_CAT_ID><ELEMENT_SET_NO>999</ELEMENT_SET_NO><REV_AT_EPOCH>273</REV_AT_EPOCH><BSTAR>-.4364E-2</BSTAR><MEAN_MOTION_DOT>-.149053E-2</MEAN_MOTION_DOT><MEAN_MOTION_DDOT>0</MEAN_MOTION_DDOT></tleParameters></data></segment></body></omm>
<omm id="CCSDS_OMM_VERS" version="2.0">
<header><CREATION_DATE/><ORIGINATOR/></header><body><segment><metadata><OBJECT_NAME>KUIPER-00072</OBJECT_NAME><OBJECT_ID>2025-151D</OBJECT_ID><CENTER_NAME>EARTH</CENTER_NAME><REF_FRAME>TEME</REF_FRAME><TIME_SYSTEM>UTC</TIME_SYSTEM><MEAN_ELEMENT_THEORY>SGP4</MEAN_ELEMENT_THEORY></metadata><data><meanElements><EPOCH>2025-08-02T20:13:12.482112</EPOCH><MEAN_MOTION>15.35358692</MEAN_MOTION><ECCENTRICITY>.0004902</ECCENTRICITY><INCLINATION>51.8769</INCLINATION><RA_OF_ASC_NODE>202.9041</RA_OF_ASC_NODE><ARG_OF_PERICENTER>212.5299</ARG_OF_PERICENTER><MEAN_ANOMALY>147.5385</MEAN_ANOMALY></meanElements><tleParameters><EPHEMERIS_TYPE>0</EPHEMERIS_TYPE><CLASSIFICATION_TYPE>U</CLASSIFICATION_TYPE><NORAD_CAT_ID>64819</NORAD_CAT_ID><ELEMENT_SET_NO>999</ELEMENT_SET_NO><REV_AT_EPOCH>269</REV_AT_EPOCH><BSTAR>.43545E-3</BSTAR><MEAN_MOTION_DOT>.14835E-3</MEAN_MOTION_DOT><MEAN_MOTION_DDOT>0</MEAN_MOTION_DDOT></tleParameters></data></segment></body></omm>
<omm id="CCSDS_OMM_VERS" version="2.0">
<header><CREATION_DATE/><ORIGINATOR/></header><body><segment><metadata><OBJECT_NAME>KUIPER-00073</OBJECT_NAME><OBJECT_ID>2025-151E</OBJECT_ID><CENTER_NAME>EARTH</CENTER_NAME><REF_FRAME>TEME</REF_FRAME><TIME_SYSTEM>UTC</TIME_SYSTEM><MEAN_ELEMENT_THEORY>SGP4</MEAN_ELEMENT_THEORY></metadata><data><meanElements><EPOCH>2025-08-03T04:00:03.699072</EPOCH><MEAN_MOTION>15.35500155</MEAN_MOTION><ECCENTRICITY>.0005065</ECCENTRICITY><INCLINATION>51.8787</INCLINATION><RA_OF_ASC_NODE>201.3352</RA_OF_ASC_NODE><ARG_OF_PERICENTER>208.9008</ARG_OF_PERICENTER><MEAN_ANOMALY>151.1698</MEAN_ANOMALY></meanElements><tleParameters><EPHEMERIS_TYPE>0</EPHEMERIS_TYPE><CLASSIFICATION_TYPE>U</CLASSIFICATION_TYPE><NORAD_CAT_ID>64820</NORAD_CAT_ID><ELEMENT_SET_NO>999</ELEMENT_SET_NO><REV_AT_EPOCH>392</REV_AT_EPOCH><BSTAR>.66018E-3</BSTAR><MEAN_MOTION_DOT>.22818E-3</MEAN_MOTION_DOT><MEAN_MOTION_DDOT>0</MEAN_MOTION_DDOT></tleParameters></data></segment></body></omm>
<omm id="CCSDS_OMM_VERS" version="2.0">
<header><CREATION_DATE/><ORIGINATOR/></header><body><segment><metadata><OBJECT_NAME>KUIPER-00074</OBJECT_NAME><OBJECT_ID>2025-151F</OBJECT_ID><CENTER_NAME>EARTH</CENTER_NAME><REF_FRAME>TEME</REF_FRAME><TIME_SYSTEM>UTC</TIME_SYSTEM><MEAN_ELEMENT_THEORY>SGP4</MEAN_ELEMENT_THEORY></metadata><data><meanElements><EPOCH>2025-08-03T03:59:01.375296</EPOCH><MEAN_MOTION>15.35587362</MEAN_MOTION><ECCENTRICITY>.0005185</ECCENTRICITY><INCLINATION>51.8775</INCLINATION><RA_OF_ASC_NODE>201.3233</RA_OF_ASC_NODE><ARG_OF_PERICENTER>210.4736</ARG_OF_PERICENTER><MEAN_ANOMALY>149.5949</MEAN_ANOMALY></meanElements><tleParameters><EPHEMERIS_TYPE>0</EPHEMERIS_TYPE><CLASSIFICATION_TYPE>U</CLASSIFICATION_TYPE><NORAD_CAT_ID>64821</NORAD_CAT_ID><ELEMENT_SET_NO>999</ELEMENT_SET_NO><REV_AT_EPOCH>274</REV_AT_EPOCH><BSTAR>.76934E-3</BSTAR><MEAN_MOTION_DOT>.26744E-3</MEAN_MOTION_DOT><MEAN_MOTION_DDOT>0</MEAN_MOTION_DDOT></tleParameters></data></segment></body></omm>
<omm id="CCSDS_OMM_VERS" version="2.0">
<header><CREATION_DATE/><ORIGINATOR/></header><body><segment><metadata><OBJECT_NAME>KUIPER-00075</OBJECT_NAME><OBJECT_ID>2025-151G</OBJECT_ID><CENTER_NAME>EARTH</CENTER_NAME><REF_FRAME>TEME</REF_FRAME><TIME_SYSTEM>UTC</TIME_SYSTEM><MEAN_ELEMENT_THEORY>SGP4</MEAN_ELEMENT_THEORY></metadata><data><meanElements><EPOCH>2025-08-03T03:57:47.032416</EPOCH><MEAN_MOTION>15.35625579</MEAN_MOTION><ECCENTRICITY>.0004911</ECCENTRICITY><INCLINATION>51.8785</INCLINATION><RA_OF_ASC_NODE>201.3250</RA_OF_ASC_NODE><ARG_OF_PERICENTER>201.8933</ARG_OF_PERICENTER><MEAN_ANOMALY>158.1844</MEAN_ANOMALY></meanElements><tleParameters><EPHEMERIS_TYPE>0</EPHEMERIS_TYPE><CLASSIFICATION_TYPE>U</CLASSIFICATION_TYPE><NORAD_CAT_ID>64822</NORAD_CAT_ID><ELEMENT_SET_NO>999</ELEMENT_SET_NO><REV_AT_EPOCH>274</REV_AT_EPOCH><BSTAR>.62032E-3</BSTAR><MEAN_MOTION_DOT>.215E-3</MEAN_MOTION_DOT><MEAN_MOTION_DDOT>0</MEAN_MOTION_DDOT></tleParameters></data></segment></body></omm>
<omm id="CCSDS_OMM_VERS" version="2.0">
<header><CREATION_DATE/><ORIGINATOR/></header><body><segment><metadata><OBJECT_NAME>KUIPER-00076</OBJECT_NAME><OBJECT_ID>2025-151H</OBJECT_ID><CENTER_NAME>EARTH</CENTER_NAME><REF_FRAME>TEME</REF_FRAME><TIME_SYSTEM>UTC</TIME_SYSTEM><MEAN_ELEMENT_THEORY>SGP4</MEAN_ELEMENT_THEORY></metadata><data><meanElements><EPOCH>2025-08-03T04:00:39.544704</EPOCH><MEAN_MOTION>15.35457694</MEAN_MOTION><ECCENTRICITY>.0004886</ECCENTRICITY><INCLINATION>51.8774</INCLINATION><RA_OF_ASC_NODE>201.3305</RA_OF_ASC_NODE><ARG_OF_PERICENTER>210.8522</ARG_OF_PERICENTER><MEAN_ANOMALY>149.2178</MEAN_ANOMALY></meanElements><tleParameters><EPHEMERIS_TYPE>0</EPHEMERIS_TYPE><CLASSIFICATION_TYPE>U</CLASSIFICATION_TYPE><NORAD_CAT_ID>64823</NORAD_CAT_ID><ELEMENT_SET_NO>999</ELEMENT_SET_NO><REV_AT_EPOCH>274</REV_AT_EPOCH><BSTAR>.67614E-3</BSTAR><MEAN_MOTION_DOT>.23348E-3</MEAN_MOTION_DOT><MEAN_MOTION_DDOT>0</MEAN_MOTION_DDOT></tleParameters></data></segment></body></omm>
<omm id="CCSDS_OMM_VERS" version="2.0">
<header><CREATION_DATE/><ORIGINATOR/></header><body><segment><metadata><OBJECT_NAME>KUIPER-00077</OBJECT_NAME><OBJECT_ID>2025-151J</OBJECT_ID><CENTER_NAME>EARTH</CENTER_NAME><REF_FRAME>TEME</REF_FRAME><TIME_SYSTEM>UTC</TIME_SYSTEM><MEAN_ELEMENT_THEORY>SGP4</MEAN_ELEMENT_THEORY></metadata><data><meanElements><EPOCH>2025-08-02T20:14:56.340096</EPOCH><MEAN_MOTION>15.35278859</MEAN_MOTION><ECCENTRICITY>.0005561</ECCENTRICITY><INCLINATION>51.8785</INCLINATION><RA_OF_ASC_NODE>202.9193</RA_OF_ASC_NODE><ARG_OF_PERICENTER>215.9883</ARG_OF_PERICENTER><MEAN_ANOMALY>144.0729</MEAN_ANOMALY></meanElements><tleParameters><EPHEMERIS_TYPE>0</EPHEMERIS_TYPE><CLASSIFICATION_TYPE>U</CLASSIFICATION_TYPE><NORAD_CAT_ID>64824</NORAD_CAT_ID><ELEMENT_SET_NO>999</ELEMENT_SET_NO><REV_AT_EPOCH>268</REV_AT_EPOCH><BSTAR>.47292E-3</BSTAR><MEAN_MOTION_DOT>.16107E-3</MEAN_MOTION_DOT><MEAN_MOTION_DDOT>0</MEAN_MOTION_DDOT></tleParameters></data></segment></body></omm>
<omm id="CCSDS_OMM_VERS" version="2.0">
<header><CREATION_DATE/><ORIGINATOR/></header><body><segment><metadata><OBJECT_NAME>KUIPER-00078</OBJECT_NAME><OBJECT_ID>2025-151K</OBJECT_ID><CENTER_NAME>EARTH</CENTER_NAME><REF_FRAME>TEME</REF_FRAME><TIME_SYSTEM>UTC</TIME_SYSTEM><MEAN_ELEMENT_THEORY>SGP4</MEAN_ELEMENT_THEORY></metadata><data><meanElements><EPOCH>2025-08-03T04:03:03.345408</EPOCH><MEAN_MOTION>15.35332281</MEAN_MOTION><ECCENTRICITY>.0005677</ECCENTRICITY><INCLINATION>51.8778</INCLINATION><RA_OF_ASC_NODE>201.3443</RA_OF_ASC_NODE><ARG_OF_PERICENTER>219.8585</ARG_OF_PERICENTER><MEAN_ANOMALY>140.1985</MEAN_ANOMALY></meanElements><tleParameters><EPHEMERIS_TYPE>0</EPHEMERIS_TYPE><CLASSIFICATION_TYPE>U</CLASSIFICATION_TYPE><NORAD_CAT_ID>64825</NORAD_CAT_ID><ELEMENT_SET_NO>999</ELEMENT_SET_NO><REV_AT_EPOCH>274</REV_AT_EPOCH><BSTAR>.68969E-3</BSTAR><MEAN_MOTION_DOT>.23731E-3</MEAN_MOTION_DOT><MEAN_MOTION_DDOT>0</MEAN_MOTION_DDOT></tleParameters></data></segment></body></omm>

</ndm>
